[Satellite]
VERSION=1.1
NAME=FLOCK 2E'-19
NICKNAME=FLOCK 2E'-19
TLE1=1 41777U 98067KP  18020.48577122  .00022999  00000-0  17224-3 0  9993
TLE2=2 41777  51.6353   3.2398 0003824  37.5706 322.5559 15.72544782 76932
